IXPE                    
1 49954U 21121A   24255.00002315  .00018227  00000+0  13633-2 0  9994
2 49954   0.2292 115.3480 0009138 116.5215 193.8105 14.99784883  5364
